NOAA 15                 
1 25338U 98030A   25092.58555295  .00000342  00000+0  15854-3 0  9997
2 25338  98.5426 119.3326 0010087 191.9504 168.1439 14.26930153398452
DMSP 5D-3 F16 (USA 172) 
1 28054U 03048A   25092.60457008  .00000318  00000+0  19020-3 0  9998
2 28054  99.0180 107.8126 0006457 321.3177 150.2694 14.14325348107201
NOAA 18                 
1 28654U 05018A   25092.53040293  .00000385  00000+0  22761-3 0  9999
2 28654  98.8441 172.7687 0013354 325.8225  34.2087 14.13563391 24053
METEOSAT-9 (MSG-2)      
1 28912U 05049B   25092.54732795  .00000118  00000+0  00000+0 0  9998
2 28912   8.3561  58.3262 0000098 139.9150 235.6037  1.00274766  2593
EWS-G1 (GOES 13)        
1 29155U 06018A   25092.51370527  .00000048  00000+0  00000+0 0  9995
2 29155   3.3843  81.7778 0065699 263.2043 267.5250  0.98828727 38894
DMSP 5D-3 F17 (USA 191) 
1 29522U 06050A   25092.60924608  .00000360  00000+0  20914-3 0  9991
2 29522  98.7422 103.2214 0009128 229.5659 130.4718 14.14800783950111
FENGYUN 3A              
1 32958U 08026A   25092.57289739  .00000323  00000+0  17399-3 0  9990
2 32958  98.6418  37.9229 0008078 324.5059  35.5579 14.19409203872899
NOAA 19                 
1 33591U 09005A   25092.59652850  .00000343  00000+0  20708-3 0  9992
2 33591  99.0036 156.9033 0013726 191.6306 168.4551 14.13328909832241
GOES 14                 
1 35491U 09033A   25092.51683295 -.00000076  00000+0  00000+0 0  9996
2 35491   0.5391  88.9073 0000424 167.5513  12.4465  1.00269425  2176
DMSP 5D-3 F18 (USA 210) 
1 35951U 09057A   25092.53219145  .00000557  00000+0  31284-3 0  9999
2 35951  98.8547  70.6543 0012248  65.8680 294.3772 14.14569216797287
EWS-G2 (GOES 15)        
1 36411U 10008A   25092.62449521  .00000030  00000+0  00000+0 0  9996
2 36411   0.1359  87.0672 0002926 194.6028 195.6300  1.00272499 55226
COMS 1                  
1 36744U 10032A   25092.49233271 -.00000352  00000+0  00000+0 0  9998
2 36744   3.6745  80.9937 0000905 279.8337 135.6373  1.00270013 46675
FENGYUN 3B              
1 37214U 10059A   25092.64521441  .00000183  00000+0  11851-3 0  9997
2 37214  99.0218 130.3472 0021955 357.2211 111.2049 14.14706450745131
SUOMI NPP               
1 37849U 11061A   25092.59355036  .00000232  00000+0  13080-3 0  9995
2 37849  98.7526  32.6320 0002149 121.3208 238.8178 14.19511565695936
METEOSAT-10 (MSG-3)     
1 38552U 12035B   25092.32415543 -.00000010  00000+0  00000+0 0  9999
2 38552   3.6307  62.0358 0001605 255.4248 350.4470  1.00277349 46433
METOP-B                 
1 38771U 12049A   25092.61292882  .00000246  00000+0  13220-3 0  9990
2 38771  98.5852 148.7173 0001363 134.8020 225.3269 14.21468860650670
INSAT-3D                
1 39216U 13038B   25092.49975409 -.00000347  00000+0  00000+0 0  9994
2 39216   0.7852  88.5015 0001681 243.2994 168.7194  1.00272710 42665
FENGYUN 3C              
1 39260U 13052A   25092.58259160  .00000271  00000+0  15906-3 0  9998
2 39260  98.4519  83.0516 0014056 208.2735 151.7679 14.15596977596295
METEOR-M 2              
1 40069U 14037A   25092.54461645  .00000337  00000+0  17392-3 0  9994
2 40069  98.4647  80.2729 0004729 230.0734 130.0029 14.21261685556724
HIMAWARI-8              
1 40267U 14060A   25092.57959657 -.00000285  00000+0  00000+0 0  9995
2 40267   0.0167 236.3584 0000384 118.6743 185.4304  1.00268545 38334
FENGYUN 2G              
1 40367U 14090A   25092.48668549 -.00000308  00000+0  00000+0 0  9992
2 40367   4.5195  78.1437 0002246 126.0142 261.6088  1.00270938 37580
METEOSAT-11 (MSG-4)     
1 40732U 15034A   25092.32589304  .00000055  00000+0  00000+0 0  9999
2 40732   2.0990  72.2118 0000920 316.4818 288.7358  1.00274228  2796
ELEKTRO-L 2             
1 41105U 15074A   25092.32120150 -.00000123  00000+0  00000+0 0  9995
2 41105   5.5800  75.9331 0002782 227.4584 348.6005  1.00270765 34089
INSAT-3DR               
1 41752U 16054A   25092.63557623 -.00000086  00000+0  00000+0 0  9993
2 41752   0.0985  89.8342 0012079 192.0960 212.0383  1.00270931 31403
HIMAWARI-9              
1 41836U 16064A   25092.48863920 -.00000283  00000+0  00000+0 0  9999
2 41836   0.0313 120.0847 0000998 289.6587  98.0134  1.00272045 30799
GOES 16                 
1 41866U 16071A   25092.52334898 -.00000256  00000+0  00000+0 0  9992
2 41866   0.0714 285.3512 0001247  85.3684 293.2885  1.00272327 30681
FENGYUN 4A              
1 41882U 16077A   25067.80059639 -.00000113  00000+0  00000+0 0  9998
2 41882   1.1339  85.1667 0004787 173.2627 349.1682  1.00660049 30269
CYGFM05                 
1 41884U 16078A   25092.50483813  .00023359  00000+0  59946-3 0  9994
2 41884  34.9602 254.8668 0010075 336.2090  23.8162 15.38338971460488
CYGFM04                 
1 41885U 16078B   25092.47888223  .00024063  00000+0  58672-3 0  9993
2 41885  34.9355 235.4636 0008828 358.1999   1.8687 15.39901510460606
CYGFM02                 
1 41886U 16078C   25092.52263035  .00026531  00000+0  62705-3 0  9992
2 41886  34.9438 235.9902 0010590 350.2527   9.7986 15.40808006460718
CYGFM01                 
1 41887U 16078D   25092.50816906  .00024534  00000+0  62231-3 0  9997
2 41887  34.9435 258.6780 0009531 322.4710  37.5343 15.38691930460416
CYGFM08                 
1 41888U 16078E   25092.53195632  .00025044  00000+0  61811-3 0  9997
2 41888  34.9464 243.9098 0011282 345.8970  14.1433 15.39501245460625
CYGFM07                 
1 41890U 16078G   25092.56421163  .00024971  00000+0  60670-3 0  9994
2 41890  34.9485 234.0802 0009272   3.7289 356.3498 15.39999839460637
CYGFM03                 
1 41891U 16078H   25092.49537202  .00024989  00000+0  61120-3 0  9999
2 41891  34.9438 236.0269 0008257 348.0242  12.0279 15.39807486460607
FENGYUN 3D              
1 43010U 17072A   25092.51776120  .00000256  00000+0  14304-3 0  9999
2 43010  98.9554  55.5415 0000850 184.6005 175.5163 14.19599790382467
NOAA 20 (JPSS-1)        
1 43013U 17073A   25092.53882886  .00000205  00000+0  11791-3 0  9993
2 43013  98.7366  32.0096 0002200  97.8416 262.3010 14.19582879381955
GOES 17                 
1 43226U 18022A   25092.57638979 -.00000101  00000+0  00000+0 0  9993
2 43226   0.0417 294.7838 0001654 145.9631 213.5000  1.00271648 26005
FENGYUN 2H              
1 43491U 18050A   25092.58219255 -.00000138  00000+0  00000+0 0  9991
2 43491   1.8945  84.2223 0000829 176.6449 219.1503  1.00273308 25021
METOP-C                 
1 43689U 18087A   25092.57875989  .00000248  00000+0  13315-3 0  9999
2 43689  98.6807 153.8577 0001236  39.6133 320.5134 14.21504109332231
GEO-KOMPSAT-2A          
1 43823U 18100A   25092.49975409 -.00000353  00000+0  00000+0 0  9995
2 43823   0.0453  36.1480 0001618  20.0229  83.0808  1.00271491 23217
METEOR-M2 2             
1 44387U 19038A   25092.56157043  .00000274  00000+0  13868-3 0  9997
2 44387  98.8694  69.5944 0001143 152.1612 207.9627 14.24177673298572
ARKTIKA-M 1             
1 47719U 21016A   25091.36420446  .00000067  00000+0  00000+0 0  9995
2 47719  63.1392 117.4198 7069772 268.5373  16.9195  2.00606894 29925
FENGYUN 3E              
1 49008U 21062A   25092.56354164  .00000057  00000+0  47558-4 0  9998
2 49008  98.7436  96.1164 0000496 302.1977  57.9151 14.19855194194059
GOES 18                 
1 51850U 22021A   25092.53447578  .00000088  00000+0  00000+0 0  9991
2 51850   0.0217  21.5298 0000032 172.1581  52.8318  1.00271917  2173
NOAA 21 (JPSS-2)        
1 54234U 22150A   25092.57577087  .00000251  00000+0  13964-3 0  9995
2 54234  98.7220  32.4517 0002347  46.0338 314.1031 14.19569453124030
METEOSAT-12 (MTG-I1)    
1 54743U 22170C   25092.32406855 -.00000015  00000+0  00000+0 0  9991
2 54743   0.6542  38.6218 0001868 277.6848 350.9190  1.00272565  8558
TIANMU-1 03             
1 55973U 23039A   25092.54727574  .00020775  00000+0  64914-3 0  9992
2 55973  97.4942 250.0207 0003845 228.7093 131.3819 15.33192441113029
TIANMU-1 04             
1 55974U 23039B   25092.56968057  .00021891  00000+0  67934-3 0  9993
2 55974  97.4868 249.3757 0004809 226.3729 133.7115 15.33396336113023
TIANMU-1 05             
1 55975U 23039C   25092.58119259  .00021706  00000+0  67844-3 0  9993
2 55975  97.4915 249.8321 0003305 247.3145 112.7748 15.33175098113012
TIANMU-1 06             
1 55976U 23039D   25092.58393974  .00021821  00000+0  67538-3 0  9990
2 55976  97.4929 250.1140 0003727 245.6804 114.4050 15.33485569113026
METEOR-M2 3             
1 57166U 23091A   25092.61626238  .00000048  00000+0  39838-4 0  9998
2 57166  98.6692 150.0758 0004252  26.6414 333.4983 14.23989119 91818
TIANMU-1 07             
1 57399U 23101A   25092.61167205  .00011772  00000+0  48932-3 0  9992
2 57399  97.3185 148.2815 0002969 239.2349 120.8596 15.23943390 94402
TIANMU-1 08             
1 57400U 23101B   25092.51244792  .00011991  00000+0  49814-3 0  9994
2 57400  97.3173 148.0221 0005005 252.6780 107.3910 15.23950149 94380
TIANMU-1 09             
1 57401U 23101C   25092.56166302  .00012490  00000+0  51795-3 0  9996
2 57401  97.3128 147.7400 0004818 248.2381 111.8343 15.24001615 94392
TIANMU-1 10             
1 57402U 23101D   25092.59321546  .00011888  28351-7  49113-3 0  9991
2 57402  97.3209 148.3544 0006789 248.4135 111.6379 15.24026870 94394
FENGYUN 3F              
1 57490U 23111A   25092.56451158  .00000173  00000+0  10196-3 0  9996
2 57490  98.7316 164.5403 0001016  52.9325 307.1944 14.20020661 86338
ARKTIKA-M 2             
1 58584U 23198A   25091.10555480  .00000156  00000+0  00000+0 0  9998
2 58584  63.2294 202.8400 6883962 269.1062  18.2553  2.00608976  9452
TIANMU-1 11             
1 58645U 23205A   25092.57052496  .00009870  00000+0  44608-3 0  9994
2 58645  97.3793 116.9867 0012102 113.2088 247.0424 15.21079121 70419
TIANMU-1 12             
1 58646U 23205B   25092.58741892  .00010726  00000+0  48397-3 0  9992
2 58646  97.3780 116.8764 0010264 106.7492 253.4870 15.21129592 70407
TIANMU-1 13             
1 58647U 23205C   25092.55283991  .00011070  00000+0  49899-3 0  9992
2 58647  97.3808 116.9522 0010582  90.6870 269.5579 15.21153933 70394
TIANMU-1 14             
1 58648U 23205D   25092.60367130  .00011034  00000+0  49758-3 0  9991
2 58648  97.3737 116.5835 0011197  93.6542 266.5974 15.21134378 70401
TIANMU-1 19             
1 58660U 23208A   25092.56554401  .00014872  00000+0  63947-3 0  9991
2 58660  97.4202 205.4589 0006876  80.6982 279.5032 15.22725399 70082
TIANMU-1 20             
1 58661U 23208B   25092.55519648  .00014497  00000+0  60128-3 0  9996
2 58661  97.4136 205.6488 0009496  88.0006 272.2318 15.23934446 70127
TIANMU-1 21             
1 58662U 23208C   25092.57189358  .00016977  00000+0  66813-3 0  9992
2 58662  97.4178 206.6215 0009004  86.7725 273.4543 15.25667181 70170
TIANMU-1 22             
1 58663U 23208D   25092.55302626  .00013683  00000+0  58775-3 0  9995
2 58663  97.4195 205.5529 0005579 101.5145 258.6718 15.22785628 70095
TIANMU-1 15             
1 58700U 24004A   25092.60009229  .00012112  00000+0  54488-3 0  9994
2 58700  97.4655 275.6890 0008767 113.8803 246.3352 15.21217279 68676
TIANMU-1 16             
1 58701U 24004B   25092.58457309  .00012619  00000+0  56795-3 0  9993
2 58701  97.4588 275.2799 0009082 116.4607 243.7561 15.21190501 68679
TIANMU-1 17             
1 58702U 24004C   25092.57381284  .00012106  00000+0  54658-3 0  9998
2 58702  97.4628 275.5459 0007041 111.8116 248.3869 15.21106732 68662
TIANMU-1 18             
1 58703U 24004D   25092.55266519  .00011021  00000+0  49745-3 0  9996
2 58703  97.4645 275.6710 0007242 104.7158 255.4881 15.21138388 68668
INSAT-3DS               
1 58990U 24033A   25092.55453900 -.00000165  00000+0  00000+0 0  9993
2 58990   0.0340 105.3055 0001727 252.9834 114.5489  1.00271176 42653
METEOR-M2 4             
1 59051U 24039A   25092.54987849  .00000116  00000+0  71806-4 0  9993
2 59051  98.6425  53.9774 0007378  15.0783 345.0614 14.22353008 56620
GOES 19                 
1 60133U 24119A   25090.54419694 -.00000274  00000+0  00000+0 0  9990
2 60133   0.0453  38.4026 0001103 314.2881 316.6408  1.00643308  2524
